STARLINK-31363          
1 59782U 24093A   26044.83470372 -.00000461  00000+0 -71998-5 0  9990
2 59782  43.0048 340.4103 0002046 252.4531 107.6097 15.27572761 99080
STARLINK-31868          
1 59783U 24093B   26044.83597651 -.00000800  00000+0 -19540-4 0  9992
2 59783  43.0012 340.3864 0001643 262.1045  97.9620 15.27572587 99084
STARLINK-31848          
1 59784U 24093C   26044.22180968  .00001158  00000+0  51608-4 0  9991
2 59784  43.0076 343.5919 0001767 252.8240 107.2418 15.27578477 98994
STARLINK-31890          
1 59785U 24093D   26044.81413730  .00012306  00000+0  45700-3 0  9995
2 59785  43.0048 340.3033 0001496 247.9566 112.1127 15.27505243 99085
STARLINK-31862          
1 59786U 24093E   26044.85206185 -.00000815  00000+0 -20097-4 0  9991
2 59786  43.0006 343.1822 0001655 221.2514 138.8213 15.27575662 99052
STARLINK-31870          
1 59787U 24093F   26044.25975135 -.00007245  00000+0 -25379-3 0  9995
2 59787  42.9895 346.4936 0003452  55.1823 304.9353 15.27598177 98969
STARLINK-31888          
1 59788U 24093G   26044.20463365 -.00000790  00000+0 -19195-4 0  9996
2 59788  42.9986 346.9336 0000637  24.7974 335.2908 15.27572693 98958
STARLINK-31863          
1 59789U 24093H   26044.20206128 -.00001425  00000+0 -42280-4 0  9996
2 59789  43.0008 346.9077 0000313 260.9854  99.0962 15.27573751 98951
STARLINK-31873          
1 59790U 24093J   26044.21232892 -.00000675  00000+0 -15031-4 0  9996
2 59790  43.0000 346.9861 0000394 161.0796 199.0070 15.27583958 98952
STARLINK-31865          
1 59791U 24093K   26044.21618765  .00024787  00000+0  90736-3 0  9996
2 59791  43.0019 347.0164 0001233 298.7927  61.2801 15.27575315 98958
STARLINK-31823          
1 59794U 24093N   26044.22004830 -.00001969  00000+0 -62084-4 0  9997
2 59794  43.0006 347.0432 0000570 343.9058  16.1775 15.27571187 98958
STARLINK-31916          
1 59795U 24093P   26044.22390525 -.00000945  00000+0 -24823-4 0  9999
2 59795  43.0020 347.0731 0000689 315.4611  44.6186 15.27576320 98953
STARLINK-31907          
1 59797U 24093R   26044.81494462  .00004072  00000+0  15754-3 0  9996
2 59797  43.0031 343.7673 0000942 290.5442  69.5308 15.27554181 99046
STARLINK-31687          
1 59798U 24093S   26044.84065353  .00002047  00000+0  83914-4 0  9997
2 59798  42.9955 343.9608 0000851   5.7580 354.3281 15.27572940 99046
STARLINK-31810          
1 59799U 24093T   26044.17264595  .00000993  00000+0  45619-4 0  9991
2 59799  43.0031 347.5450 0001372 265.5537  94.5158 15.27571256 98949
STARLINK-31812          
1 59800U 24093U   26044.23031983  .00001172  00000+0  52126-4 0  9995
2 59800  43.0097 347.1102 0002335 247.6661 112.3943 15.27576769 99028
