[{"OBJECT_NAME":"STARLINK-31363","OBJECT_ID":"2024-093A","EPOCH":"2026-02-13T20:01:58.401408","MEAN_MOTION":15.27572761,"ECCENTRICITY":0.00020462,"INCLINATION":43.0048,"RA_OF_ASC_NODE":340.4103,"ARG_OF_PERICENTER":252.4531,"MEAN_ANOMALY":107.6097,"EPHEMERIS_TYPE":0,"CLASSIFICATION_TYPE":"U","NORAD_CAT_ID":59782,"ELEMENT_SET_NO":999,"REV_AT_EPOCH":9908,"BSTAR":-7.199813e-6,"MEAN_MOTION_DOT":-4.61e-6,"MEAN_MOTION_DDOT":0},{"OBJECT_NAME":"STARLINK-31868","OBJECT_ID":"2024-093B","EPOCH":"2026-02-13T20:03:48.370464","MEAN_MOTION":15.27572587,"ECCENTRICITY":0.00016433,"INCLINATION":43.0012,"RA_OF_ASC_NODE":340.3864,"ARG_OF_PERICENTER":262.1045,"MEAN_ANOMALY":97.962,"EPHEMERIS_TYPE":0,"CLASSIFICATION_TYPE":"U","NORAD_CAT_ID":59783,"ELEMENT_SET_NO":999,"REV_AT_EPOCH":9908,"BSTAR":-1.9540258e-5,"MEAN_MOTION_DOT":-8.0e-6,"MEAN_MOTION_DDOT":0},{"OBJECT_NAME":"STARLINK-31848","OBJECT_ID":"2024-093C","EPOCH":"2026-02-13T05:19:24.356352","MEAN_MOTION":15.27578477,"ECCENTRICITY":0.0001767,"INCLINATION":43.0076,"RA_OF_ASC_NODE":343.5919,"ARG_OF_PERICENTER":252.824,"MEAN_ANOMALY":107.2418,"EPHEMERIS_TYPE":0,"CLASSIFICATION_TYPE":"U","NORAD_CAT_ID":59784,"ELEMENT_SET_NO":999,"REV_AT_EPOCH":9899,"BSTAR":5.1608e-5,"MEAN_MOTION_DOT":1.158e-5,"MEAN_MOTION_DDOT":0},{"OBJECT_NAME":"STARLINK-31890","OBJECT_ID":"2024-093D","EPOCH":"2026-02-13T19:32:21.462720","MEAN_MOTION":15.27505243,"ECCENTRICITY":0.00014968,"INCLINATION":43.0048,"RA_OF_ASC_NODE":340.3033,"ARG_OF_PERICENTER":247.9566,"MEAN_ANOMALY":112.1127,"EPHEMERIS_TYPE":0,"CLASSIFICATION_TYPE":"U","NORAD_CAT_ID":59785,"ELEMENT_SET_NO":999,"REV_AT_EPOCH":9908,"BSTAR":0.00045699786,"MEAN_MOTION_DOT":0.00012306,"MEAN_MOTION_DDOT":0},{"OBJECT_NAME":"STARLINK-31862","OBJECT_ID":"2024-093E","EPOCH":"2026-02-13T20:26:58.143840","MEAN_MOTION":15.27575662,"ECCENTRICITY":0.00016551,"INCLINATION":43.0006,"RA_OF_ASC_NODE":343.1822,"ARG_OF_PERICENTER":221.2514,"MEAN_ANOMALY":138.8213,"EPHEMERIS_TYPE":0,"CLASSIFICATION_TYPE":"U","NORAD_CAT_ID":59786,"ELEMENT_SET_NO":999,"REV_AT_EPOCH":9905,"BSTAR":-2.009745e-5,"MEAN_MOTION_DOT":-8.15e-6,"MEAN_MOTION_DDOT":0},{"OBJECT_NAME":"STARLINK-31870","OBJECT_ID":"2024-093F","EPOCH":"2026-02-13T06:14:02.516640","MEAN_MOTION":15.27598177,"ECCENTRICITY":0.0003452,"INCLINATION":42.9895,"RA_OF_ASC_NODE":346.4936,"ARG_OF_PERICENTER":55.1823,"MEAN_ANOMALY":304.9353,"EPHEMERIS_TYPE":0,"CLASSIFICATION_TYPE":"U","NORAD_CAT_ID":59787,"ELEMENT_SET_NO":999,"REV_AT_EPOCH":9896,"BSTAR":-0.00025379,"MEAN_MOTION_DOT":-7.245e-5,"MEAN_MOTION_DDOT":0},{"OBJECT_NAME":"STARLINK-31888","OBJECT_ID":"2024-093G","EPOCH":"2026-02-13T04:54:40.347360","MEAN_MOTION":15.27572693,"ECCENTRICITY":6.37e-5,"INCLINATION":42.9986,"RA_OF_ASC_NODE":346.9336,"ARG_OF_PERICENTER":24.7974,"MEAN_ANOMALY":335.2908,"EPHEMERIS_TYPE":0,"CLASSIFICATION_TYPE":"U","NORAD_CAT_ID":59788,"ELEMENT_SET_NO":999,"REV_AT_EPOCH":9895,"BSTAR":-1.9195e-5,"MEAN_MOTION_DOT":-7.9e-6,"MEAN_MOTION_DDOT":0},{"OBJECT_NAME":"STARLINK-31863","OBJECT_ID":"2024-093H","EPOCH":"2026-02-13T04:50:58.094592","MEAN_MOTION":15.27573751,"ECCENTRICITY":3.13e-5,"INCLINATION":43.0008,"RA_OF_ASC_NODE":346.9077,"ARG_OF_PERICENTER":260.9854,"MEAN_ANOMALY":99.0962,"EPHEMERIS_TYPE":0,"CLASSIFICATION_TYPE":"U","NORAD_CAT_ID":59789,"ELEMENT_SET_NO":999,"REV_AT_EPOCH":9895,"BSTAR":-4.228e-5,"MEAN_MOTION_DOT":-1.425e-5,"MEAN_MOTION_DDOT":0},{"OBJECT_NAME":"STARLINK-31873","OBJECT_ID":"2024-093J","EPOCH":"2026-02-13T05:05:45.218688","MEAN_MOTION":15.27583958,"ECCENTRICITY":3.94e-5,"INCLINATION":43,"RA_OF_ASC_NODE":346.9861,"ARG_OF_PERICENTER":161.0796,"MEAN_ANOMALY":199.007,"EPHEMERIS_TYPE":0,"CLASSIFICATION_TYPE":"U","NORAD_CAT_ID":59790,"ELEMENT_SET_NO":999,"REV_AT_EPOCH":9895,"BSTAR":-1.5031e-5,"MEAN_MOTION_DOT":-6.75e-6,"MEAN_MOTION_DDOT":0},{"OBJECT_NAME":"STARLINK-31865","OBJECT_ID":"2024-093K","EPOCH":"2026-02-13T05:11:18.612960","MEAN_MOTION":15.27575315,"ECCENTRICITY":0.0001233,"INCLINATION":43.0019,"RA_OF_ASC_NODE":347.0164,"ARG_OF_PERICENTER":298.7927,"MEAN_ANOMALY":61.2801,"EPHEMERIS_TYPE":0,"CLASSIFICATION_TYPE":"U","NORAD_CAT_ID":59791,"ELEMENT_SET_NO":999,"REV_AT_EPOCH":9895,"BSTAR":0.00090736,"MEAN_MOTION_DOT":0.00024787,"MEAN_MOTION_DDOT":0},{"OBJECT_NAME":"STARLINK-31823","OBJECT_ID":"2024-093N","EPOCH":"2026-02-13T05:16:52.173120","MEAN_MOTION":15.27571187,"ECCENTRICITY":5.7e-5,"INCLINATION":43.0006,"RA_OF_ASC_NODE":347.0432,"ARG_OF_PERICENTER":343.9058,"MEAN_ANOMALY":16.1775,"EPHEMERIS_TYPE":0,"CLASSIFICATION_TYPE":"U","NORAD_CAT_ID":59794,"ELEMENT_SET_NO":999,"REV_AT_EPOCH":9895,"BSTAR":-6.2084e-5,"MEAN_MOTION_DOT":-1.969e-5,"MEAN_MOTION_DDOT":0},{"OBJECT_NAME":"STARLINK-31916","OBJECT_ID":"2024-093P","EPOCH":"2026-02-13T05:22:25.413600","MEAN_MOTION":15.2757632,"ECCENTRICITY":6.89e-5,"INCLINATION":43.002,"RA_OF_ASC_NODE":347.0731,"ARG_OF_PERICENTER":315.4611,"MEAN_ANOMALY":44.6186,"EPHEMERIS_TYPE":0,"CLASSIFICATION_TYPE":"U","NORAD_CAT_ID":59795,"ELEMENT_SET_NO":999,"REV_AT_EPOCH":9895,"BSTAR":-2.4823e-5,"MEAN_MOTION_DOT":-9.45e-6,"MEAN_MOTION_DDOT":0},{"OBJECT_NAME":"STARLINK-31907","OBJECT_ID":"2024-093R","EPOCH":"2026-02-13T19:33:31.215168","MEAN_MOTION":15.27554181,"ECCENTRICITY":9.429e-5,"INCLINATION":43.0031,"RA_OF_ASC_NODE":343.7673,"ARG_OF_PERICENTER":290.5442,"MEAN_ANOMALY":69.5308,"EPHEMERIS_TYPE":0,"CLASSIFICATION_TYPE":"U","NORAD_CAT_ID":59797,"ELEMENT_SET_NO":999,"REV_AT_EPOCH":9904,"BSTAR":0.00015753816,"MEAN_MOTION_DOT":4.072e-5,"MEAN_MOTION_DDOT":0},{"OBJECT_NAME":"STARLINK-31687","OBJECT_ID":"2024-093S","EPOCH":"2026-02-13T20:10:32.464992","MEAN_MOTION":15.2757294,"ECCENTRICITY":8.519e-5,"INCLINATION":42.9955,"RA_OF_ASC_NODE":343.9608,"ARG_OF_PERICENTER":5.758,"MEAN_ANOMALY":354.3281,"EPHEMERIS_TYPE":0,"CLASSIFICATION_TYPE":"U","NORAD_CAT_ID":59798,"ELEMENT_SET_NO":999,"REV_AT_EPOCH":9904,"BSTAR":8.3914469e-5,"MEAN_MOTION_DOT":2.047e-5,"MEAN_MOTION_DDOT":0},{"OBJECT_NAME":"STARLINK-31810","OBJECT_ID":"2024-093T","EPOCH":"2026-02-13T04:08:36.610080","MEAN_MOTION":15.27571256,"ECCENTRICITY":0.00013723,"INCLINATION":43.0031,"RA_OF_ASC_NODE":347.545,"ARG_OF_PERICENTER":265.5537,"MEAN_ANOMALY":94.5158,"EPHEMERIS_TYPE":0,"CLASSIFICATION_TYPE":"U","NORAD_CAT_ID":59799,"ELEMENT_SET_NO":999,"REV_AT_EPOCH":9894,"BSTAR":4.5619081e-5,"MEAN_MOTION_DOT":9.93e-6,"MEAN_MOTION_DDOT":0},{"OBJECT_NAME":"STARLINK-31812","OBJECT_ID":"2024-093U","EPOCH":"2026-02-13T05:31:39.633312","MEAN_MOTION":15.27576769,"ECCENTRICITY":0.0002335,"INCLINATION":43.0097,"RA_OF_ASC_NODE":347.1102,"ARG_OF_PERICENTER":247.6661,"MEAN_ANOMALY":112.3943,"EPHEMERIS_TYPE":0,"CLASSIFICATION_TYPE":"U","NORAD_CAT_ID":59800,"ELEMENT_SET_NO":999,"REV_AT_EPOCH":9902,"BSTAR":5.2126e-5,"MEAN_MOTION_DOT":1.172e-5,"MEAN_MOTION_DDOT":0}]
